{
  "type": "FeatureCollection",
  "features": [
    {
      "type": "Feature",
      "properties": {
        "norad_id": 39160,
        "name": "VNREDSAT 1",
        "group": "resource",
        "lat": -77.72944054085175,
        "lon": 73.1612265351392,
        "alt_km": 685.6582852175561,
        "timestamp": "2025-12-03T15:48:02.758649+00:00",
        "meta_object_name": "VNREDSAT 1",
        "meta_object_id": "2013-021B",
        "meta_epoch": "2025-12-03T07:58:18.363936",
        "meta_mean_motion": 14.6489948,
        "meta_eccentricity": 0.00013674,
        "meta_inclination": 97.9387,
        "meta_ra_of_asc_node": 32.9364,
        "meta_arg_of_pericenter": 83.7959,
        "meta_mean_anomaly": 276.34,
        "meta_ephemeris_type": 0,
        "meta_classification_type": "U",
        "meta_norad_cat_id": 39160,
        "meta_element_set_no": 999,
        "meta_rev_at_epoch": 67161,
        "meta_bstar": 0.00021435728,
        "meta_mean_motion_dot": 1.1e-05,
        "meta_mean_motion_ddot": 0,
        "tle_line1": "1 39160U 13021B   25337.33215699  .00001100  00000+0  21436-3 0  9994",
        "tle_line2": "2 39160  97.9387  32.9364 0001367  83.7959 276.3400 14.64899480671615"
      },
      "geometry": {
        "type": "Point",
        "coordinates": [
          73.1612265351392,
          -77.72944054085175
        ]
      }
    },
    {
      "type": "Feature",
      "properties": {
        "norad_id": 39227,
        "name": "ARIRANG-5 (KOMPSAT-5)",
        "group": "resource",
        "lat": 34.11937956682988,
        "lon": -12.70691353458494,
        "alt_km": 549.616285830677,
        "timestamp": "2025-12-03T15:48:02.758658+00:00",
        "meta_object_name": "ARIRANG-5 (KOMPSAT-5)",
        "meta_object_id": "2013-042A",
        "meta_epoch": "2025-12-03T08:46:19.230240",
        "meta_mean_motion": 15.04502165,
        "meta_eccentricity": 0.00042851,
        "meta_inclination": 97.6157,
        "meta_ra_of_asc_node": 161.8032,
        "meta_arg_of_pericenter": 81.9897,
        "meta_mean_anomaly": 278.1815,
        "meta_ephemeris_type": 0,
        "meta_classification_type": "U",
        "meta_norad_cat_id": 39227,
        "meta_element_set_no": 999,
        "meta_rev_at_epoch": 67441,
        "meta_bstar": 0.00017681114,
        "meta_mean_motion_dot": 2.415e-05,
        "meta_mean_motion_ddot": 0,
        "tle_line1": "1 39227U 13042A   25337.36550035  .00002415  00000+0  17681-3 0  9997",
        "tle_line2": "2 39227  97.6157 161.8032 0004285  81.9897 278.1815 15.04502165674415"
      },
      "geometry": {
        "type": "Point",
        "coordinates": [
          -12.70691353458494,
          34.11937956682988
        ]
      }
    },
    {
      "type": "Feature",
      "properties": {
        "norad_id": 39418,
        "name": "SKYSAT-A",
        "group": "resource",
        "lat": -69.9131017581523,
        "lon": 48.99971081835892,
        "alt_km": 525.5377760792799,
        "timestamp": "2025-12-03T15:48:02.758681+00:00",
        "meta_object_name": "SKYSAT-A",
        "meta_object_id": "2013-066C",
        "meta_epoch": "2025-12-03T03:24:15.349248",
        "meta_mean_motion": 15.11489448,
        "meta_eccentricity": 0.00204425,
        "meta_inclination": 97.4128,
        "meta_ra_of_asc_node": 27.6425,
        "meta_arg_of_pericenter": 272.095,
        "meta_mean_anomaly": 87.794,
        "meta_ephemeris_type": 0,
        "meta_classification_type": "U",
        "meta_norad_cat_id": 39418,
        "meta_element_set_no": 999,
        "meta_rev_at_epoch": 65885,
        "meta_bstar": 0.00030269913,
        "meta_mean_motion_dot": 5.085e-05,
        "meta_mean_motion_ddot": 0,
        "tle_line1": "1 39418U 13066C   25337.14184432  .00005085  00000+0  30270-3 0  9990",
        "tle_line2": "2 39418  97.4128  27.6425 0020442 272.0950  87.7940 15.11489448658853"
      },
      "geometry": {
        "type": "Point",
        "coordinates": [
          48.99971081835892,
          -69.9131017581523
        ]
      }
    },
    {
      "type": "Feature",
      "properties": {
        "norad_id": 39419,
        "name": "DUBAISAT-2",
        "group": "resource",
        "lat": 2.6079935311141247,
        "lon": 148.6887713036632,
        "alt_km": 552.3360715171593,
        "timestamp": "2025-12-03T15:48:02.758691+00:00",
        "meta_object_name": "DUBAISAT-2",
        "meta_object_id": "2013-066D",
        "meta_epoch": "2025-12-03T07:03:20.894112",
        "meta_mean_motion": 15.08209225,
        "meta_eccentricity": 0.00114972,
        "meta_inclination": 97.4441,
        "meta_ra_of_asc_node": 327.9945,
        "meta_arg_of_pericenter": 356.3863,
        "meta_mean_anomaly": 3.7281,
        "meta_ephemeris_type": 0,
        "meta_classification_type": "U",
        "meta_norad_cat_id": 39419,
        "meta_element_set_no": 999,
        "meta_rev_at_epoch": 65684,
        "meta_bstar": 0.00041574946,
        "meta_mean_motion_dot": 6.382e-05,
        "meta_mean_motion_ddot": 0,
        "tle_line1": "1 39419U 13066D   25337.29399183  .00006382  00000+0  41575-3 0  9999",
        "tle_line2": "2 39419  97.4441 327.9945 0011497 356.3863   3.7281 15.08209225656846"
      },
      "geometry": {
        "type": "Point",
        "coordinates": [
          148.6887713036632,
          2.6079935311141247
        ]
      }
    },
    {
      "type": "Feature",
      "properties": {
        "norad_id": 39574,
        "name": "GPM-CORE",
        "group": "resource",
        "lat": 17.24493490376432,
        "lon": 54.77874817246288,
        "alt_km": 432.6027733132505,
        "timestamp": "2025-12-03T15:48:02.758700+00:00",
        "meta_object_name": "GPM-CORE",
        "meta_object_id": "2014-009C",
        "meta_epoch": "2025-12-03T07:20:23.006112",
        "meta_mean_motion": 15.45167531,
        "meta_eccentricity": 0.00105666,
        "meta_inclination": 64.9754,
        "meta_ra_of_asc_node": 244.2978,
        "meta_arg_of_pericenter": 268.6885,
        "meta_mean_anomaly": 91.3046,
        "meta_ephemeris_type": 0,
        "meta_classification_type": "U",
        "meta_norad_cat_id": 39574,
        "meta_element_set_no": 999,
        "meta_rev_at_epoch": 66755,
        "meta_bstar": 0.00041245202,
        "meta_mean_motion_dot": 0.00019509,
        "meta_mean_motion_ddot": 0,
        "tle_line1": "1 39574U 14009C   25337.30582183  .00019509  00000+0  41245-3 0  9994",
        "tle_line2": "2 39574  64.9754 244.2978 0010566 268.6885  91.3046 15.45167531667552"
      },
      "geometry": {
        "type": "Point",
        "coordinates": [
          54.77874817246288,
          17.24493490376432
        ]
      }
    },
    {
      "type": "Feature",
      "properties": {
        "norad_id": 39634,
        "name": "SENTINEL-1A",
        "group": "resource",
        "lat": -33.03894665836325,
        "lon": -11.597847376384587,
        "alt_km": 702.3492010257924,
        "timestamp": "2025-12-03T15:48:02.758710+00:00",
        "meta_object_name": "SENTINEL-1A",
        "meta_object_id": "2014-016A",
        "meta_epoch": "2025-12-03T07:43:30.274752",
        "meta_mean_motion": 14.5920143,
        "meta_eccentricity": 0.00012519,
        "meta_inclination": 98.1805,
        "meta_ra_of_asc_node": 342.7024,
        "meta_arg_of_pericenter": 88.7026,
        "meta_mean_anomaly": 271.4317,
        "meta_ephemeris_type": 0,
        "meta_classification_type": "U",
        "meta_norad_cat_id": 39634,
        "meta_element_set_no": 999,
        "meta_rev_at_epoch": 62145,
        "meta_bstar": 7.5170835e-05,
        "meta_mean_motion_dot": 3.09e-06,
        "meta_mean_motion_ddot": 0,
        "tle_line1": "1 39634U 14016A   25337.32187818  .00000309  00000+0  75171-4 0  9991",
        "tle_line2": "2 39634  98.1805 342.7024 0001251  88.7026 271.4317 14.59201430621452"
      },
      "geometry": {
        "type": "Point",
        "coordinates": [
          -11.597847376384587,
          -33.03894665836325
        ]
      }
    },
    {
      "type": "Feature",
      "properties": {
        "norad_id": 39731,
        "name": "KAZEOSAT 1",
        "group": "resource",
        "lat": 38.68247645616793,
        "lon": -123.48226870680077,
        "alt_km": 748.2403854282556,
        "timestamp": "2025-12-03T15:48:02.758720+00:00",
        "meta_object_name": "KAZEOSAT 1",
        "meta_object_id": "2014-024A",
        "meta_epoch": "2025-12-03T08:29:21.663744",
        "meta_mean_motion": 14.42053619,
        "meta_eccentricity": 0.00010609,
        "meta_inclination": 98.3445,
        "meta_ra_of_asc_node": 49.4713,
        "meta_arg_of_pericenter": 99.0225,
        "meta_mean_anomaly": 261.1085,
        "meta_ephemeris_type": 0,
        "meta_classification_type": "U",
        "meta_norad_cat_id": 39731,
        "meta_element_set_no": 999,
        "meta_rev_at_epoch": 61033,
        "meta_bstar": 0.00013342261,
        "meta_mean_motion_dot": 3.95e-06,
        "meta_mean_motion_ddot": 0,
        "tle_line1": "1 39731U 14024A   25337.35372296  .00000395  00000+0  13342-3 0  9993",
        "tle_line2": "2 39731  98.3445  49.4713 0001060  99.0225 261.1085 14.42053619610331"
      },
      "geometry": {
        "type": "Point",
        "coordinates": [
          -123.48226870680077,
          38.68247645616793
        ]
      }
    }
  ]
}